HIMAWARI-8              
1 40267U 14060A   23255.01368639 -.00000286  00000+0  00000+0 0  9998
2 40267   0.0249 160.5747 0000942  65.5855 270.1890  1.00269469 32745
